<?xml version="1.0" encoding="UTF-8"?>
<ndm xmlns:xsi="http://www.w3.org/2001/XMLSchema-instance" xsi:noNamespaceSchemaLocation="https://sanaregistry.org/r/ndmxml_unqualified/ndmxml-2.0.0-master-2.0.xsd">
<omm id="CCSDS_OMM_VERS" version="2.0">
<header><CREATION_DATE/><ORIGINATOR/></header><body><segment><metadata><OBJECT_NAME>ONEWEB-0578</OBJECT_NAME><OBJECT_ID>2023-043X</OBJECT_ID><CENTER_NAME>EARTH</CENTER_NAME><REF_FRAME>TEME</REF_FRAME><TIME_SYSTEM>UTC</TIME_SYSTEM><MEAN_ELEMENT_THEORY>SGP4</MEAN_ELEMENT_THEORY></metadata><data><meanElements><EPOCH>2025-10-23T11:25:50.584224</EPOCH><MEAN_MOTION>13.21850770</MEAN_MOTION><ECCENTRICITY>.00019497</ECCENTRICITY><INCLINATION>87.9169</INCLINATION><RA_OF_ASC_NODE>291.2016</RA_OF_ASC_NODE><ARG_OF_PERICENTER>82.4474</ARG_OF_PERICENTER><MEAN_ANOMALY>277.6882</MEAN_ANOMALY></meanElements><tleParameters><EPHEMERIS_TYPE>0</EPHEMERIS_TYPE><CLASSIFICATION_TYPE>U</CLASSIFICATION_TYPE><NORAD_CAT_ID>56067</NORAD_CAT_ID><ELEMENT_SET_NO>999</ELEMENT_SET_NO><REV_AT_EPOCH>12696</REV_AT_EPOCH><BSTAR>-.14817113E-2</BSTAR><MEAN_MOTION_DOT>-.599E-5</MEAN_MOTION_DOT><MEAN_MOTION_DDOT>0</MEAN_MOTION_DDOT></tleParameters></data></segment></body></omm>
<omm id="CCSDS_OMM_VERS" version="2.0">
<header><CREATION_DATE/><ORIGINATOR/></header><body><segment><metadata><OBJECT_NAME>ONEWEB-0579</OBJECT_NAME><OBJECT_ID>2023-043Y</OBJECT_ID><CENTER_NAME>EARTH</CENTER_NAME><REF_FRAME>TEME</REF_FRAME><TIME_SYSTEM>UTC</TIME_SYSTEM><MEAN_ELEMENT_THEORY>SGP4</MEAN_ELEMENT_THEORY></metadata><data><meanElements><EPOCH>2025-10-23T11:11:38.281056</EPOCH><MEAN_MOTION>13.21862971</MEAN_MOTION><ECCENTRICITY>.00018669</ECCENTRICITY><INCLINATION>87.9168</INCLINATION><RA_OF_ASC_NODE>291.1909</RA_OF_ASC_NODE><ARG_OF_PERICENTER>97.6472</ARG_OF_PERICENTER><MEAN_ANOMALY>262.4874</MEAN_ANOMALY></meanElements><tleParameters><EPHEMERIS_TYPE>0</EPHEMERIS_TYPE><CLASSIFICATION_TYPE>U</CLASSIFICATION_TYPE><NORAD_CAT_ID>56068</NORAD_CAT_ID><ELEMENT_SET_NO>999</ELEMENT_SET_NO><REV_AT_EPOCH>12697</REV_AT_EPOCH><BSTAR>-.83245969E-2</BSTAR><MEAN_MOTION_DOT>-.3426E-4</MEAN_MOTION_DOT><MEAN_MOTION_DDOT>0</MEAN_MOTION_DDOT></tleParameters></data></segment></body></omm>
<omm id="CCSDS_OMM_VERS" version="2.0">
<header><CREATION_DATE/><ORIGINATOR/></header><body><segment><metadata><OBJECT_NAME>ONEWEB-0581</OBJECT_NAME><OBJECT_ID>2023-043Z</OBJECT_ID><CENTER_NAME>EARTH</CENTER_NAME><REF_FRAME>TEME</REF_FRAME><TIME_SYSTEM>UTC</TIME_SYSTEM><MEAN_ELEMENT_THEORY>SGP4</MEAN_ELEMENT_THEORY></metadata><data><meanElements><EPOCH>2025-10-23T13:43:17.719104</EPOCH><MEAN_MOTION>13.16595002</MEAN_MOTION><ECCENTRICITY>.00014207</ECCENTRICITY><INCLINATION>87.8982</INCLINATION><RA_OF_ASC_NODE>275.9180</RA_OF_ASC_NODE><ARG_OF_PERICENTER>84.7554</ARG_OF_PERICENTER><MEAN_ANOMALY>275.3739</MEAN_ANOMALY></meanElements><tleParameters><EPHEMERIS_TYPE>0</EPHEMERIS_TYPE><CLASSIFICATION_TYPE>U</CLASSIFICATION_TYPE><NORAD_CAT_ID>56069</NORAD_CAT_ID><ELEMENT_SET_NO>999</ELEMENT_SET_NO><REV_AT_EPOCH>12782</REV_AT_EPOCH><BSTAR>.6377962E-4</BSTAR><MEAN_MOTION_DOT>.37E-6</MEAN_MOTION_DOT><MEAN_MOTION_DDOT>0</MEAN_MOTION_DDOT></tleParameters></data></segment></body></omm>
<omm id="CCSDS_OMM_VERS" version="2.0">
<header><CREATION_DATE/><ORIGINATOR/></header><body><segment><metadata><OBJECT_NAME>ONEWEB-0609</OBJECT_NAME><OBJECT_ID>2023-043AA</OBJECT_ID><CENTER_NAME>EARTH</CENTER_NAME><REF_FRAME>TEME</REF_FRAME><TIME_SYSTEM>UTC</TIME_SYSTEM><MEAN_ELEMENT_THEORY>SGP4</MEAN_ELEMENT_THEORY></metadata><data><meanElements><EPOCH>2025-10-23T11:50:25.611072</EPOCH><MEAN_MOTION>13.15549015</MEAN_MOTION><ECCENTRICITY>.00019227</ECCENTRICITY><INCLINATION>87.8969</INCLINATION><RA_OF_ASC_NODE>306.4541</RA_OF_ASC_NODE><ARG_OF_PERICENTER>93.0237</ARG_OF_PERICENTER><MEAN_ANOMALY>267.1113</MEAN_ANOMALY></meanElements><tleParameters><EPHEMERIS_TYPE>0</EPHEMERIS_TYPE><CLASSIFICATION_TYPE>U</CLASSIFICATION_TYPE><NORAD_CAT_ID>56070</NORAD_CAT_ID><ELEMENT_SET_NO>999</ELEMENT_SET_NO><REV_AT_EPOCH>12531</REV_AT_EPOCH><BSTAR>.26135663E-3</BSTAR><MEAN_MOTION_DOT>.111E-5</MEAN_MOTION_DOT><MEAN_MOTION_DDOT>0</MEAN_MOTION_DDOT></tleParameters></data></segment></body></omm>
<omm id="CCSDS_OMM_VERS" version="2.0">
<header><CREATION_DATE/><ORIGINATOR/></header><body><segment><metadata><OBJECT_NAME>ONEWEB-0613</OBJECT_NAME><OBJECT_ID>2023-043AB</OBJECT_ID><CENTER_NAME>EARTH</CENTER_NAME><REF_FRAME>TEME</REF_FRAME><TIME_SYSTEM>UTC</TIME_SYSTEM><MEAN_ELEMENT_THEORY>SGP4</MEAN_ELEMENT_THEORY></metadata><data><meanElements><EPOCH>2025-10-23T09:54:03.136320</EPOCH><MEAN_MOTION>13.15551212</MEAN_MOTION><ECCENTRICITY>.00019371</ECCENTRICITY><INCLINATION>87.8967</INCLINATION><RA_OF_ASC_NODE>306.4837</RA_OF_ASC_NODE><ARG_OF_PERICENTER>100.5784</ARG_OF_PERICENTER><MEAN_ANOMALY>259.5565</MEAN_ANOMALY></meanElements><tleParameters><EPHEMERIS_TYPE>0</EPHEMERIS_TYPE><CLASSIFICATION_TYPE>U</CLASSIFICATION_TYPE><NORAD_CAT_ID>56071</NORAD_CAT_ID><ELEMENT_SET_NO>999</ELEMENT_SET_NO><REV_AT_EPOCH>12530</REV_AT_EPOCH><BSTAR>.15291234E-3</BSTAR><MEAN_MOTION_DOT>.7E-6</MEAN_MOTION_DOT><MEAN_MOTION_DDOT>0</MEAN_MOTION_DDOT></tleParameters></data></segment></body></omm>
<omm id="CCSDS_OMM_VERS" version="2.0">
<header><CREATION_DATE/><ORIGINATOR/></header><body><segment><metadata><OBJECT_NAME>ONEWEB-0630</OBJECT_NAME><OBJECT_ID>2023-043AC</OBJECT_ID><CENTER_NAME>EARTH</CENTER_NAME><REF_FRAME>TEME</REF_FRAME><TIME_SYSTEM>UTC</TIME_SYSTEM><MEAN_ELEMENT_THEORY>SGP4</MEAN_ELEMENT_THEORY></metadata><data><meanElements><EPOCH>2025-10-23T11:36:45.027072</EPOCH><MEAN_MOTION>13.15548325</MEAN_MOTION><ECCENTRICITY>.00019552</ECCENTRICITY><INCLINATION>87.8965</INCLINATION><RA_OF_ASC_NODE>306.4416</RA_OF_ASC_NODE><ARG_OF_PERICENTER>101.1746</ARG_OF_PERICENTER><MEAN_ANOMALY>258.9604</MEAN_ANOMALY></meanElements><tleParameters><EPHEMERIS_TYPE>0</EPHEMERIS_TYPE><CLASSIFICATION_TYPE>U</CLASSIFICATION_TYPE><NORAD_CAT_ID>56072</NORAD_CAT_ID><ELEMENT_SET_NO>999</ELEMENT_SET_NO><REV_AT_EPOCH>12530</REV_AT_EPOCH><BSTAR>.36274545E-3</BSTAR><MEAN_MOTION_DOT>.149E-5</MEAN_MOTION_DOT><MEAN_MOTION_DDOT>0</MEAN_MOTION_DDOT></tleParameters></data></segment></body></omm>
<omm id="CCSDS_OMM_VERS" version="2.0">
<header><CREATION_DATE/><ORIGINATOR/></header><body><segment><metadata><OBJECT_NAME>ONEWEB-0632</OBJECT_NAME><OBJECT_ID>2023-043AD</OBJECT_ID><CENTER_NAME>EARTH</CENTER_NAME><REF_FRAME>TEME</REF_FRAME><TIME_SYSTEM>UTC</TIME_SYSTEM><MEAN_ELEMENT_THEORY>SGP4</MEAN_ELEMENT_THEORY></metadata><data><meanElements><EPOCH>2025-10-23T11:29:54.468096</EPOCH><MEAN_MOTION>13.15548837</MEAN_MOTION><ECCENTRICITY>.00016321</ECCENTRICITY><INCLINATION>87.8961</INCLINATION><RA_OF_ASC_NODE>306.4618</RA_OF_ASC_NODE><ARG_OF_PERICENTER>94.0509</ARG_OF_PERICENTER><MEAN_ANOMALY>266.0808</MEAN_ANOMALY></meanElements><tleParameters><EPHEMERIS_TYPE>0</EPHEMERIS_TYPE><CLASSIFICATION_TYPE>U</CLASSIFICATION_TYPE><NORAD_CAT_ID>56073</NORAD_CAT_ID><ELEMENT_SET_NO>999</ELEMENT_SET_NO><REV_AT_EPOCH>12530</REV_AT_EPOCH><BSTAR>.44526669E-3</BSTAR><MEAN_MOTION_DOT>.18E-5</MEAN_MOTION_DOT><MEAN_MOTION_DDOT>0</MEAN_MOTION_DDOT></tleParameters></data></segment></body></omm>
<omm id="CCSDS_OMM_VERS" version="2.0">
<header><CREATION_DATE/><ORIGINATOR/></header><body><segment><metadata><OBJECT_NAME>ONEWEB-0633</OBJECT_NAME><OBJECT_ID>2023-043AE</OBJECT_ID><CENTER_NAME>EARTH</CENTER_NAME><REF_FRAME>TEME</REF_FRAME><TIME_SYSTEM>UTC</TIME_SYSTEM><MEAN_ELEMENT_THEORY>SGP4</MEAN_ELEMENT_THEORY></metadata><data><meanElements><EPOCH>2025-10-23T11:20:46.362048</EPOCH><MEAN_MOTION>13.15548422</MEAN_MOTION><ECCENTRICITY>.00021664</ECCENTRICITY><INCLINATION>87.8960</INCLINATION><RA_OF_ASC_NODE>306.4265</RA_OF_ASC_NODE><ARG_OF_PERICENTER>101.2329</ARG_OF_PERICENTER><MEAN_ANOMALY>258.9045</MEAN_ANOMALY></meanElements><tleParameters><EPHEMERIS_TYPE>0</EPHEMERIS_TYPE><CLASSIFICATION_TYPE>U</CLASSIFICATION_TYPE><NORAD_CAT_ID>56074</NORAD_CAT_ID><ELEMENT_SET_NO>999</ELEMENT_SET_NO><REV_AT_EPOCH>12528</REV_AT_EPOCH><BSTAR>.48989482E-3</BSTAR><MEAN_MOTION_DOT>.197E-5</MEAN_MOTION_DOT><MEAN_MOTION_DDOT>0</MEAN_MOTION_DDOT></tleParameters></data></segment></body></omm>

</ndm>
