ONEWEB-0578             
1 56067U 23043X   25296.47627991 -.00000599  00000+0 -14817-2 0  9992
2 56067  87.9169 291.2016 0001949  82.4474 277.6882 13.21850770126967
ONEWEB-0579             
1 56068U 23043Y   25296.46641529 -.00003426  00000+0 -83246-2 0  9999
2 56068  87.9168 291.1909 0001866  97.6472 262.4874 13.21862971126971
ONEWEB-0581             
1 56069U 23043Z   25296.57173286  .00000037  00000+0  63780-4 0  9998
2 56069  87.8982 275.9180 0001420  84.7554 275.3739 13.16595002127820
ONEWEB-0609             
1 56070U 23043AA  25296.49335198  .00000111  00000+0  26136-3 0  9999
2 56070  87.8969 306.4541 0001922  93.0237 267.1113 13.15549015125315
ONEWEB-0613             
1 56071U 23043AB  25296.41253630  .00000070  00000+0  15291-3 0  9996
2 56071  87.8967 306.4837 0001937 100.5784 259.5565 13.15551212125306
ONEWEB-0630             
1 56072U 23043AC  25296.48385448  .00000149  00000+0  36275-3 0  9999
2 56072  87.8965 306.4416 0001955 101.1746 258.9604 13.15548325125301
ONEWEB-0632             
1 56073U 23043AD  25296.47910264  .00000180  00000+0  44527-3 0  9993
2 56073  87.8961 306.4618 0001632  94.0509 266.0808 13.15548837125305
ONEWEB-0633             
1 56074U 23043AE  25296.47275882  .00000197  00000+0  48989-3 0  9998
2 56074  87.8960 306.4265 0002166 101.2329 258.9045 13.15548422125287
